start=new Date('2022-04-06T00:00:00.000Z').valueOf();
sats=[{"EPOCH":"2022-04-05T22:00:00.999936","RA_OF_ASC_NODE":"254.2084","INCLINATION":"53.2173","TLE_LINE2":"2 51120  53.2173 254.2084 0001239  51.8080  33.0933 15.65224297  3708","TLE_LINE1":"1 51120U 22005S   22095.91667824 -.00712421  00000-0 -76887-2 0  9996","MEAN_MOTION_DDOT":"0.0000000000000","APOAPSIS":"373.432","COUNTRY_CODE":"US","FILE":"3389912","MEAN_ELEMENT_THEORY":"SGP4","OBJECT_TYPE":"PAYLOAD","NORAD_CAT_ID":"51120","LAUNCH_DATE":"2022-01-19","PERIAPSIS":"371.759","DECAY_DATE":null,"OBJECT_NAME":"STARLINK-3398","SEMIMAJOR_AXIS":"6750.731","SITE":"AFETR","OBJECT_ID":"2022-005S","ECCENTRICITY":"0.00012390","PERIOD":"92.000","ARG_OF_PERICENTER":"51.8080","MEAN_ANOMALY":"33.0933","REF_FRAME":"TEME","GP_ID":"200544855","MEAN_MOTION":"15.65224297","ELEMENT_SET_NO":"999","CENTER_NAME":"EARTH","BSTAR":"-0.00768870000000","REV_AT_EPOCH":"370","EPHEMERIS_TYPE":"0","CLASSIFICATION_TYPE":"U","TIME_SYSTEM":"UTC","RCS_SIZE":"LARGE","MEAN_MOTION_DOT":"-0.00712421"},{"EPOCH":"2022-04-05T22:00:00.999936","RA_OF_ASC_NODE":"254.2124","INCLINATION":"53.2173","TLE_LINE2":"2 51121  53.2173 254.2124 0001154  58.9175  13.5463 15.64713151  3705","MEAN_MOTION_DDOT":"0.0000000000000","TLE_LINE1":"1 51121U 22005T   22095.91667824 -.00712859  00000-0 -78534-2 0  9993","APOAPSIS":"374.845","COUNTRY_CODE":"US","FILE":"3389912","MEAN_ELEMENT_THEORY":"SGP4","OBJECT_TYPE":"PAYLOAD","NORAD_CAT_ID":"51121","PERIAPSIS":"373.287","LAUNCH_DATE":"2022-01-19","DECAY_DATE":null,"OBJECT_NAME":"STARLINK-3399","SEMIMAJOR_AXIS":"6752.201","SITE":"AFETR","OBJECT_ID":"2022-005T","ECCENTRICITY":"0.00011540","PERIOD":"92.030","ARG_OF_PERICENTER":"58.9175","MEAN_ANOMALY":"13.5463","REF_FRAME":"TEME","GP_ID":"200545105","MEAN_MOTION":"15.64713151","ELEMENT_SET_NO":"999","CENTER_NAME":"EARTH","BSTAR":"-0.00785340000000","EPHEMERIS_TYPE":"0","REV_AT_EPOCH":"370","CLASSIFICATION_TYPE":"U","TIME_SYSTEM":"UTC","RCS_SIZE":"LARGE","MEAN_MOTION_DOT":"-0.00712859"},{"ELEMENT_SET_NO":"999","CENTER_NAME":"EARTH","BSTAR":"-0.00773050000000","TIME_SYSTEM":"UTC","RCS_SIZE":"LARGE","MEAN_MOTION_DOT":"-0.00712592","REV_AT_EPOCH":"370","EPHEMERIS_TYPE":"0","CLASSIFICATION_TYPE":"U","SEMIMAJOR_AXIS":"6751.098","SITE":"AFETR","OBJECT_ID":"2022-005U","ECCENTRICITY":"0.00011450","DECAY_DATE":null,"OBJECT_NAME":"STARLINK-3373","GP_ID":"200546356","MEAN_MOTION":"15.65096555","MEAN_ANOMALY":"22.1207","PERIOD":"92.007","ARG_OF_PERICENTER":"59.7289","REF_FRAME":"TEME","COUNTRY_CODE":"US","MEAN_ELEMENT_THEORY":"SGP4","FILE":"3389912","APOAPSIS":"373.736","LAUNCH_DATE":"2022-01-19","PERIAPSIS":"372.190","OBJECT_TYPE":"PAYLOAD","NORAD_CAT_ID":"51122","EPOCH":"2022-04-05T22:00:00.999936","RA_OF_ASC_NODE":"254.2096","INCLINATION":"53.2173","MEAN_MOTION_DDOT":"0.0000000000000","TLE_LINE2":"2 51122  53.2173 254.2096 0001145  59.7289  22.1207 15.65096555  3704","TLE_LINE1":"1 51122U 22005U   22095.91667824 -.00712592  00000-0 -77305-2 0  9993"},{"PERIAPSIS":"371.374","LAUNCH_DATE":"2022-01-19","NORAD_CAT_ID":"51123","OBJECT_TYPE":"PAYLOAD","FILE":"3389912","MEAN_ELEMENT_THEORY":"SGP4","COUNTRY_CODE":"US","APOAPSIS":"373.082","TLE_LINE2":"2 51123  53.2174 254.2071 0001265  51.6110  36.3037 15.65352130  3708","TLE_LINE1":"1 51123U 22005V   22095.91667824 -.00712325  00000-0 -76481-2 0  9992","MEAN_MOTION_DDOT":"0.0000000000000","INCLINATION":"53.2174","RA_OF_ASC_NODE":"254.2071","EPOCH":"2022-04-05T22:00:00.999936","MEAN_MOTION_DOT":"-0.00712325","TIME_SYSTEM":"UTC","RCS_SIZE":"LARGE","EPHEMERIS_TYPE":"0","REV_AT_EPOCH":"370","CLASSIFICATION_TYPE":"U","BSTAR":"-0.00764810000000","ELEMENT_SET_NO":"999","CENTER_NAME":"EARTH","MEAN_MOTION":"15.65352130","GP_ID":"200546107","REF_FRAME":"TEME","PERIOD":"91.992","MEAN_ANOMALY":"36.3037","ARG_OF_PERICENTER":"51.6110","ECCENTRICITY":"0.00012650","SITE":"AFETR","SEMIMAJOR_AXIS":"6750.363","OBJECT_ID":"2022-005V","DECAY_DATE":null,"OBJECT_NAME":"STARLINK-3392"},{"TLE_LINE1":"1 51124U 22005W   22095.91667824 -.00711809  00000-0 -18600-1 0  9997","TLE_LINE2":"2 51124  53.2173 257.7547 0001686  44.2748 142.6458 15.40635544 13374","MEAN_MOTION_DDOT":"0.0000000000000","INCLINATION":"53.2173","RA_OF_ASC_NODE":"257.7547","EPOCH":"2022-04-05T22:00:00.999936","NORAD_CAT_ID":"51124","OBJECT_TYPE":"PAYLOAD","LAUNCH_DATE":"2022-01-19","PERIAPSIS":"443.084","APOAPSIS":"445.385","FILE":"3389748","MEAN_ELEMENT_THEORY":"SGP4","COUNTRY_CODE":"US","REF_FRAME":"TEME","MEAN_ANOMALY":"142.6458","PERIOD":"93.468","ARG_OF_PERICENTER":"44.2748","MEAN_MOTION":"15.40635544","GP_ID":"200518964","DECAY_DATE":null,"OBJECT_NAME":"STARLINK-3389","ECCENTRICITY":"0.00016860","SEMIMAJOR_AXIS":"6822.369","SITE":"AFETR","OBJECT_ID":"2022-005W","REV_AT_EPOCH":"1337","EPHEMERIS_TYPE":"0","CLASSIFICATION_TYPE":"U","MEAN_MOTION_DOT":"-0.00711809","TIME_SYSTEM":"UTC","RCS_SIZE":"LARGE","BSTAR":"-0.01860000000000","ELEMENT_SET_NO":"999","CENTER_NAME":"EARTH"},{"PERIAPSIS":"449.069","LAUNCH_DATE":"2022-01-19","NORAD_CAT_ID":"51125","OBJECT_TYPE":"PAYLOAD","FILE":"3389748","MEAN_ELEMENT_THEORY":"SGP4","COUNTRY_CODE":"US","APOAPSIS":"451.165","TLE_LINE1":"1 51125U 22005X   22095.91667824 -.00715775  00000-0 -19987-1 0  9993","TLE_LINE2":"2 51125  53.2173 257.7510 0001535  39.4314 351.9552 15.38645174 13369","MEAN_MOTION_DDOT":"0.0000000000000","INCLINATION":"53.2173","RA_OF_ASC_NODE":"257.7510","EPOCH":"2022-04-05T22:00:00.999936","MEAN_MOTION_DOT":"-0.00715775","RCS_SIZE":"LARGE","TIME_SYSTEM":"UTC","CLASSIFICATION_TYPE":"U","EPHEMERIS_TYPE":"0","REV_AT_EPOCH":"1336","BSTAR":"-0.01998700000000","CENTER_NAME":"EARTH","ELEMENT_SET_NO":"999","MEAN_MOTION":"15.38645174","GP_ID":"200518454","REF_FRAME":"TEME","PERIOD":"93.589","MEAN_ANOMALY":"351.9552","ARG_OF_PERICENTER":"39.4314","ECCENTRICITY":"0.00015350","OBJECT_ID":"2022-005X","SEMIMAJOR_AXIS":"6828.252","SITE":"AFETR","OBJECT_NAME":"STARLINK-3387","DECAY_DATE":null},{"TLE_LINE1":"1 51126U 22005Y   22095.91667824 -.00711958  00000-0 -18525-1 0  9990","TLE_LINE2":"2 51126  53.2173 257.7536 0001686  44.4062 152.9263 15.40763503 13370","MEAN_MOTION_DDOT":"0.0000000000000","INCLINATION":"53.2173","RA_OF_ASC_NODE":"257.7536","EPOCH":"2022-04-05T22:00:00.999936","NORAD_CAT_ID":"51126","OBJECT_TYPE":"PAYLOAD","LAUNCH_DATE":"2022-01-19","PERIAPSIS":"442.707","APOAPSIS":"445.007","FILE":"3389775","MEAN_ELEMENT_THEORY":"SGP4","COUNTRY_CODE":"US","REF_FRAME":"TEME","PERIOD":"93.460","MEAN_ANOMALY":"152.9263","ARG_OF_PERICENTER":"44.4062","MEAN_MOTION":"15.40763503","GP_ID":"200519680","OBJECT_NAME":"STARLINK-3386","DECAY_DATE":null,"ECCENTRICITY":"0.00016860","OBJECT_ID":"2022-005Y","SITE":"AFETR","SEMIMAJOR_AXIS":"6821.992","CLASSIFICATION_TYPE":"U","REV_AT_EPOCH":"1337","EPHEMERIS_TYPE":"0","MEAN_MOTION_DOT":"-0.00711958","RCS_SIZE":"LARGE","TIME_SYSTEM":"UTC","BSTAR":"-0.01852500000000","CENTER_NAME":"EARTH","ELEMENT_SET_NO":"999"},{"OBJECT_TYPE":"PAYLOAD","NORAD_CAT_ID":"51127","PERIAPSIS":"442.304","LAUNCH_DATE":"2022-01-19","APOAPSIS":"444.654","COUNTRY_CODE":"US","FILE":"3389912","MEAN_ELEMENT_THEORY":"SGP4","INCLINATION":"53.2173","MEAN_MOTION_DDOT":"0.0000000000000","TLE_LINE2":"2 51127  53.2173 257.7524 0001723  42.7759 164.9303 15.40891486  3676","TLE_LINE1":"1 51127U 22005Z   22095.91667824 -.00712069  00000-0 -18449-1 0  9990","EPOCH":"2022-04-05T22:00:00.999936","RA_OF_ASC_NODE":"257.7524","REV_AT_EPOCH":"367","EPHEMERIS_TYPE":"0","CLASSIFICATION_TYPE":"U","TIME_SYSTEM":"UTC","RCS_SIZE":"LARGE","MEAN_MOTION_DOT":"-0.00712069","ELEMENT_SET_NO":"999","CENTER_NAME":"EARTH","BSTAR":"-0.01844900000000","PERIOD":"93.452","MEAN_ANOMALY":"164.9303","ARG_OF_PERICENTER":"42.7759","REF_FRAME":"TEME","GP_ID":"200546607","MEAN_MOTION":"15.40891486","DECAY_DATE":null,"OBJECT_NAME":"STARLINK-3370","SITE":"AFETR","SEMIMAJOR_AXIS":"6821.614","OBJECT_ID":"2022-005Z","ECCENTRICITY":"0.00017230"},{"BSTAR":"-0.01962500000000","ELEMENT_SET_NO":"999","CENTER_NAME":"EARTH","EPHEMERIS_TYPE":"0","REV_AT_EPOCH":"1336","CLASSIFICATION_TYPE":"U","MEAN_MOTION_DOT":"-0.00714647","TIME_SYSTEM":"UTC","RCS_SIZE":"LARGE","DECAY_DATE":null,"OBJECT_NAME":"STARLINK-3400","ECCENTRICITY":"0.00016610","SITE":"AFETR","SEMIMAJOR_AXIS":"6826.766","OBJECT_ID":"2022-005AA","REF_FRAME":"TEME","PERIOD":"93.558","MEAN_ANOMALY":"39.1800","ARG_OF_PERICENTER":"36.6144","MEAN_MOTION":"15.39147539","GP_ID":"200518461","APOAPSIS":"449.765","MEAN_ELEMENT_THEORY":"SGP4","FILE":"3389748","COUNTRY_CODE":"US","NORAD_CAT_ID":"51128","OBJECT_TYPE":"PAYLOAD","LAUNCH_DATE":"2022-01-19","PERIAPSIS":"447.497","RA_OF_ASC_NODE":"257.7496","EPOCH":"2022-04-05T22:00:00.999936","TLE_LINE2":"2 51128  53.2173 257.7496 0001661  36.6144  39.1800 15.39147539 13369","TLE_LINE1":"1 51128U 22005AA  22095.91667824 -.00714647  00000-0 -19625-1 0  9992","MEAN_MOTION_DDOT":"0.0000000000000","INCLINATION":"53.2173"},{"OBJECT_TYPE":"PAYLOAD","NORAD_CAT_ID":"51129","LAUNCH_DATE":"2022-01-19","PERIAPSIS":"457.616","APOAPSIS":"459.907","COUNTRY_CODE":"US","MEAN_ELEMENT_THEORY":"SGP4","FILE":"3389750","INCLINATION":"53.2174","TLE_LINE2":"2 51129  53.2174 257.1021 0001675  45.2462 115.7804 15.35727872 13380","MEAN_MOTION_DDOT":"0.0000000000000","TLE_LINE1":"1 51129U 22005AB  22095.91667824 -.00711359  00000-0 -21832-1 0  9993","EPOCH":"2022-04-05T22:00:00.999936","RA_OF_ASC_NODE":"257.1021","CLASSIFICATION_TYPE":"U","REV_AT_EPOCH":"1338","EPHEMERIS_TYPE":"0","RCS_SIZE":"LARGE","TIME_SYSTEM":"UTC","MEAN_MOTION_DOT":"-0.00711359","CENTER_NAME":"EARTH","ELEMENT_SET_NO":"999","BSTAR":"-0.02183200000000","PERIOD":"93.767","ARG_OF_PERICENTER":"45.2462","MEAN_ANOMALY":"115.7804","REF_FRAME":"TEME","GP_ID":"200518983","MEAN_MOTION":"15.35727872","OBJECT_NAME":"STARLINK-3396","DECAY_DATE":null,"OBJECT_ID":"2022-005AB","SEMIMAJOR_AXIS":"6836.896","SITE":"AFETR","ECCENTRICITY":"0.00016750"}];
